[{"OBJECT_NAME":"STARLINK-36472","OBJECT_ID":"2026-003N","EPOCH":"2026-03-09T10:41:25.221984","MEAN_MOTION":15.27581501,"ECCENTRICITY":0.00013757,"INCLINATION":42.999,"RA_OF_ASC_NODE":228.6924,"ARG_OF_PERICENTER":270.6243,"MEAN_ANOMALY":89.4451,"EPHEMERIS_TYPE":0,"CLASSIFICATION_TYPE":"U","NORAD_CAT_ID":67346,"ELEMENT_SET_NO":999,"REV_AT_EPOCH":877,"BSTAR":0.0011309447,"MEAN_MOTION_DOT":0.00030991,"MEAN_MOTION_DDOT":0},{"OBJECT_NAME":"OBJECT N","OBJECT_ID":"2019-093N","EPOCH":"2026-03-09T21:41:56.087232","MEAN_MOTION":15.29897693,"ECCENTRICITY":0.0006278,"INCLINATION":98.0505,"RA_OF_ASC_NODE":226.9456,"ARG_OF_PERICENTER":33.3806,"MEAN_ANOMALY":326.7828,"EPHEMERIS_TYPE":0,"CLASSIFICATION_TYPE":"U","NORAD_CAT_ID":44891,"ELEMENT_SET_NO":999,"REV_AT_EPOCH":33957,"BSTAR":0.0010567776,"MEAN_MOTION_DOT":0.00030617,"MEAN_MOTION_DDOT":0}]
